NORAD_CAT_ID,OBJECT_NAME,OBJECT_TYPE,EPOCH,MEAN_MOTION,ECCENTRICITY,INCLINATION,RA_OF_ASC_NODE,ARG_OF_PERICENTER,MEAN_ANOMALY,BSTAR,MEAN_MOTION_DOT,MEAN_MOTION_DDOT,TLE_LINE0,TLE_LINE1,TLE_LINE2,SEMIMAJOR_AXIS,PERIOD,APOGEE,PERIGEE,DECAYED
53895.0,STARLINK-5032,PAYLOAD,2023-06-16 13:31:50,15.0884125,0.0001267,53.2166,120.311,85.69,274.4237,-1.4854e-07,-2.9e-06,0.0,0 STARLINK-5032,1 53895U 22119K   23167.56377357 -.00000290  00000-0 -14854-6 0  9998,2 53895  53.2166 120.3110 0001267  85.6900 274.4237 15.08841250 41151,6917.877,95.437,540.618,538.865,0.0
53895.0,STARLINK-5032,PAYLOAD,2023-06-16 21:28:45,15.08835302,0.0001158,53.2172,118.8266,91.8252,268.2873,2.5307e-05,1.15e-06,0.0,0 STARLINK-5032,1 53895U 22119K   23167.89497649  .00000115  00000-0  25307-4 0  9998,2 53895  53.2172 118.8266 0001158  91.8252 268.2873 15.08835302 40786,6917.895,95.438,540.561,538.959,0.0
53895.0,STARLINK-5032,PAYLOAD,2023-06-17 07:01:04,15.08842501,0.0001249,53.2168,117.0394,87.0211,273.0924,1.3049e-05,-8e-07,0.0,0 STARLINK-5032,1 53895U 22119K   23168.29241249 -.00000080  00000-0  13049-4 0  9998,2 53895  53.2168 117.0394 0001249  87.0211 273.0924 15.08842501 40844,6917.873,95.437,540.602,538.874,0.0
53895.0,STARLINK-5032,PAYLOAD,2023-06-17 13:22:37,15.08832946,0.0001222,53.2169,115.848,80.6358,279.4772,-4.0065e-05,-9.25e-06,0.0,0 STARLINK-5032,1 53895U 22119K   23168.55738123 -.00000925  00000-0 -40065-4 0  9996,2 53895  53.2169 115.8480 0001222  80.6358 279.4772 15.08832946 40886,6917.902,95.438,540.612,538.922,0.0
53895.0,STARLINK-5032,PAYLOAD,2023-06-18 05:16:29,15.08834483,0.00012,53.2166,112.8751,88.3599,271.7531,-0.00015371,-2.733e-05,0.0,0 STARLINK-5032,1 53895U 22119K   23169.21978812 -.00002733  00000-0 -15371-3 0  9991,2 53895  53.2166 112.8751 0001200  88.3599 271.7531 15.08834483 41404,6917.897,95.438,540.592,538.932,0.0
53895.0,STARLINK-5032,PAYLOAD,2023-06-18 19:34:57,15.088355,0.0001276,53.2167,110.1995,90.1256,269.9883,4.0261e-05,3.53e-06,0.0,0 STARLINK-5032,1 53895U 22119K   23169.81594209  .00000353  00000-0  40261-4 0  9992,2 53895  53.2167 110.1995 0001276  90.1256 269.9883 15.08835500 41499,6917.894,95.438,540.642,538.876,0.0
53895.0,STARLINK-5032,PAYLOAD,2023-06-19 06:42:38,15.08844976,0.0001314,53.2167,108.1175,88.0178,272.0965,6.0688e-05,6.78e-06,0.0,0 STARLINK-5032,1 53895U 22119K   23170.27961536  .00000678  00000-0  60688-4 0  9990,2 53895  53.2167 108.1175 0001314  88.0178 272.0965 15.08844976 41143,6917.865,95.437,540.639,538.821,0.0
53895.0,STARLINK-5032,PAYLOAD,2023-06-19 13:04:11,15.08839641,0.0001274,53.2166,106.928,83.9325,276.1812,-1.6893e-05,-5.57e-06,0.0,0 STARLINK-5032,1 53895U 22119K   23170.54458166 -.00000557  00000-0 -16893-4 0  9997,2 53895  53.2166 106.9280 0001274  83.9325 276.1812 15.08839641 41608,6917.881,95.438,540.628,538.865,0.0
53895.0,STARLINK-5032,PAYLOAD,2023-06-20 04:58:03,15.0883628,0.0001294,53.2169,103.955,87.4666,272.6474,2.5839e-05,1.23e-06,0.0,0 STARLINK-5032,1 53895U 22119K   23171.20698455  .00000123  00000-0  25839-4 0  9995,2 53895  53.2169 103.9550 0001294  87.4666 272.6474 15.08836280 41709,6917.892,95.438,540.652,538.862,0.0
53895.0,STARLINK-5032,PAYLOAD,2023-06-20 12:54:59,15.08836072,0.000128,53.2168,102.4669,86.9908,273.123,1.1143e-05,-1.11e-06,0.0,0 STARLINK-5032,1 53895U 22119K   23171.53818558 -.00000111  00000-0  11143-4 0  9990,2 53895  53.2168 102.4669 0001280  86.9908 273.1230 15.08836072 41751,6917.892,95.438,540.643,538.872,0.0
53895.0,STARLINK-5032,PAYLOAD,2023-06-21 01:38:04,15.08831459,0.0001219,53.2164,100.0876,90.6939,269.4193,0.0001454,2.026e-05,0.0,0 STARLINK-5032,1 53895U 22119K   23172.06810448  .00002026  00000-0  14540-3 0  9998,2 53895  53.2164 100.0876 0001219  90.6939 269.4193 15.08831459 41412,6917.906,95.438,540.615,538.928,0.0
53895.0,STARLINK-5032,PAYLOAD,2023-06-21 12:45:45,15.08846144,0.000124,53.2172,98.0057,89.3048,270.8086,-3.5534e-05,-8.53e-06,0.0,0 STARLINK-5032,1 53895U 22119K   23172.53177873 -.00000853  00000-0 -35534-4 0  9993,2 53895  53.2172  98.0057 0001240  89.3048 270.8086 15.08846144 41906,6917.862,95.437,540.584,538.869,0.0
53895.0,STARLINK-5032,PAYLOAD,2023-06-21 19:07:18,15.08831936,0.000107,53.2164,96.8196,79.3192,280.7921,1.1721e-05,-1.01e-06,0.0,0 STARLINK-5032,1 53895U 22119K   23172.79674619 -.00000101  00000-0  11721-4 0  9998,2 53895  53.2164  96.8196 0001070  79.3192 280.7921 15.08831936 41942,6917.905,95.438,540.51,539.03,0.0
53895.0,STARLINK-5032,PAYLOAD,2023-06-22 18:58:06,15.08834224,0.0001198,53.2167,92.3563,90.9738,269.1392,-4.76e-05,-1.045e-05,0.0,0 STARLINK-5032,1 53895U 22119K   23173.79034775 -.00001045  00000-0 -47600-4 0  9996,2 53895  53.2167  92.3563 0001198  90.9738 269.1392 15.08834224 41676,6917.898,95.438,540.592,538.934,0.0
53895.0,STARLINK-5032,PAYLOAD,2023-06-23 01:19:38,15.08840621,0.0001226,53.2172,91.1693,83.2663,276.8468,-8.179e-06,-4.18e-06,0.0,0 STARLINK-5032,1 53895U 22119K   23174.05530327 -.00000418  00000-0 -81790-5 0  9992,2 53895  53.2172  91.1693 0001226  83.2663 276.8468 15.08840621 41719,6917.878,95.438,540.592,538.895,0.0
53895.0,STARLINK-5032,PAYLOAD,2023-06-24 02:45:47,15.08845704,0.0001101,53.2167,86.4095,84.4478,275.664,3.6218e-05,2.89e-06,0.0,0 STARLINK-5032,1 53895U 22119K   23175.11513874  .00000289  00000-0  36218-4 0  9996,2 53895  53.2167  86.4095 0001101  84.4478 275.6640 15.08845704 41878,6917.863,95.437,540.49,538.966,0.0
53895.0,STARLINK-5032,PAYLOAD,2023-06-25 02:36:35,15.08838651,0.0001005,53.217,81.9515,92.7134,267.3974,1.7852e-05,-4e-08,0.0,0 STARLINK-5032,1 53895U 22119K   23176.10874644 -.00000004  00000-0  17852-4 0  9990,2 53895  53.2170  81.9515 0001005  92.7134 267.3974 15.08838651 42022,6917.885,95.438,540.445,539.054,0.0
53895.0,STARLINK-5032,PAYLOAD,2023-06-26 16:45:51,15.08837187,9.72e-05,53.2178,74.8168,92.8524,267.2579,-1.7828e-05,-5.71e-06,0.0,0 STARLINK-5032,1 53895U 22119K   23177.69851119 -.00000571  00000-0 -17828-4 0  9990,2 53895  53.2178  74.8168 0000972  92.8524 267.2579 15.08837187 42260,6917.889,95.438,540.426,539.082,0.0
53895.0,STARLINK-5032,PAYLOAD,2023-06-27 22:58:10,15.08836913,8.47e-05,53.2174,69.1646,77.4009,282.7078,4.5661e-05,4.39e-06,0.0,0 STARLINK-5032,1 53895U 22119K   23178.95707083  .00000439  00000-0  45661-4 0  9997,2 53895  53.2174  69.1646 0000847  77.4009 282.7078 15.08836913 42455,6917.89,95.438,540.341,539.169,0.0
53895.0,STARLINK-5032,PAYLOAD,2023-06-29 01:59:44,15.08838793,9.3e-05,53.2175,64.1086,69.1296,290.9795,3.3454e-05,2.45e-06,0.0,0 STARLINK-5032,1 53895U 22119K   23180.08315182  .00000245  00000-0  33454-4 0  9991,2 53895  53.2175  64.1086 0000930  69.1296 290.9795 15.08838793 42622,6917.884,95.438,540.392,539.106,0.0
53895.0,STARLINK-5032,PAYLOAD,2023-06-29 22:39:44,15.08847159,0.0001032,53.218,60.2436,73.2285,286.882,-1.3332e-06,-3.09e-06,0.0,0 STARLINK-5032,1 53895U 22119K   23180.94426854 -.00000309  00000-0 -13332-5 0  9992,2 53895  53.2180  60.2436 0001032  73.2285 286.8820 15.08847159 42755,6917.859,95.437,540.437,539.01,0.0
53895.0,STARLINK-5032,PAYLOAD,2023-07-01 00:05:55,15.08835681,9.51e-05,53.2175,55.4839,79.1666,280.9433,3.0901e-05,2.04e-06,0.0,0 STARLINK-5032,1 53895U 22119K   23182.00411366  .00000204  00000-0  30901-4 0  9995,2 53895  53.2175  55.4839 0000951  79.1666 280.9433 15.08835681 42919,6917.894,95.438,540.416,539.101,0.0
53895.0,STARLINK-5032,PAYLOAD,2023-07-02 01:32:05,15.08839943,0.0001008,53.2181,50.7265,91.1684,268.9424,-4.0463e-05,-9.32e-06,0.0,0 STARLINK-5032,1 53895U 22119K   23183.06395568 -.00000932  00000-0 -40463-4 0  9991,2 53895  53.2181  50.7265 0001008  91.1684 268.9424 15.08839943 43074,6917.881,95.438,540.443,539.048,0.0
53895.0,STARLINK-5032,PAYLOAD,2023-07-03 07:44:25,15.08835968,0.0001005,53.2178,45.0779,85.4921,274.6186,-1.0714e-05,-4.58e-06,0.0,0 STARLINK-5032,1 53895U 22119K   23184.32251946 -.00000458  00000-0 -10714-4 0  9991,2 53895  53.2178  45.0779 0001005  85.4921 274.6186 15.08835968 43267,6917.893,95.438,540.453,539.062,0.0
53895.0,STARLINK-5032,PAYLOAD,2023-07-03 23:38:16,15.08840856,0.0001024,53.2176,42.1043,89.0026,271.1083,4.7932e-05,4.75e-06,0.0,0 STARLINK-5032,1 53895U 22119K   23184.98491606  .00000475  00000-0  47932-4 0  9991,2 53895  53.2176  42.1043 0001024  89.0026 271.1083 15.08840856 43365,6917.878,95.438,540.451,539.034,0.0
53895.0,STARLINK-5032,PAYLOAD,2023-07-05 07:26:00,15.08828975,7.3e-05,53.218,36.1577,85.7528,274.3547,-8.1747e-05,-1.588e-05,0.0,0 STARLINK-5032,1 53895U 22119K   23186.30972605 -.00001588  00000-0 -81747-4 0  9992,2 53895  53.2180  36.1577 0000730  85.7528 274.3547 15.08828975 43568,6917.914,95.438,540.284,539.274,0.0
53895.0,STARLINK-5032,PAYLOAD,2023-07-05 23:19:51,15.08839921,0.0001021,53.2177,33.1834,84.7179,275.393,-2.2258e-05,-6.42e-06,0.0,0 STARLINK-5032,1 53895U 22119K   23186.97212032 -.00000642  00000-0 -22258-4 0  9998,2 53895  53.2177  33.1834 0001021  84.7179 275.3930 15.08839921 43663,6917.881,95.438,540.452,539.039,0.0
53895.0,STARLINK-5032,PAYLOAD,2023-07-06 23:10:37,15.08847329,0.0001037,53.2177,28.7224,84.869,275.242,2.6939e-05,1.41e-06,0.0,0 STARLINK-5032,1 53895U 22119K   23187.96571355  .00000141  00000-0  26939-4 0  9996,2 53895  53.2177  28.7224 0001037  84.8690 275.2420 15.08847329 43813,6917.858,95.437,540.44,539.006,0.0
53895.0,STARLINK-5032,PAYLOAD,2023-07-07 19:50:38,15.08839669,0.0001,53.2174,24.8565,88.4862,271.6244,5.9435e-05,6.58e-06,0.0,0 STARLINK-5032,1 53895U 22119K   23188.82683684  .00000658  00000-0  59435-4 0  9991,2 53895  53.2174  24.8565 0001000  88.4862 271.6244 15.08839669 43942,6917.881,95.438,540.438,539.055,0.0
53895.0,STARLINK-5032,PAYLOAD,2023-07-08 22:52:12,15.08841566,0.0001216,53.2188,19.8041,97.3584,262.7546,-8.9738e-06,-4.31e-06,0.0,0 STARLINK-5032,1 53895U 22119K   23189.95291885 -.00000431  00000-0 -89738-5 0  9995,2 53895  53.2188  19.8041 0001216  97.3584 262.7546 15.08841566 44114,6917.876,95.437,540.582,538.899,0.0
